{"version": 0.6, "generator": "Overpass API 0.7.57 93a4d346", "osm3s": {"timestamp_osm_base": "2022-05-20T09:15:56Z", "timestamp_areas_base": "2022-05-20T07:51:58Z", "copyright": "The data included in this document is from www.openstreetmap.org. The data is made available under ODbL."}, "elements": [{"type": "node", "id": 26022810, "lat": 51.3376407, "lon": 12.3333339, "tags": {"amenity": "theatre", "name": "Theater der Jungen Welt", "name:ru": "\u0422\u0435\u0430\u0442\u0440 \u044e\u043d\u043e\u0433\u043e \u0437\u0440\u0438\u0442\u0435\u043b\u044f", "toilets:wheelchair": "yes", "website": "https://www.theaterderjungenweltleipzig.de/", "wheelchair": "yes", "wikidata": "Q25089083", "wikipedia": "de:Theater der Jungen Welt"}}, {"type": "node", "id": 26022926, "lat": 51.336158, "lon": 12.3391082, "tags": {"addr:city": "Leipzig", "addr:postcode": "04177", "addr:street": "Dreilindenstra\u00dfe", "amenity": "theatre", "name": "Musikalische Kom\u00f6die", "operator": "Oper Leipzig", "toilets:wheelchair": "yes", "website": "https://www.oper-leipzig.de/musikalische-komoedie/", "wheelchair": "yes", "wikidata": "Q1955068"}}, {"type": "node", "id": 31562655, "lat": 51.3431565, "lon": 12.3347924, "tags": {"addr:city": "Leipzig", "addr:country": "DE", "addr:housenumber": "18", "addr:postcode": "04177", "addr:street": "Wasserstra\u00dfe", "amenity": "arts_centre", "name": "Kulturwerkstatt KAOS", "operator": "KINDERVEREINIGUNG Leipzig e.V.", "website": "https://www.kaos-leipzig.de/"}}, {"type": "node", "id": 94847920, "lat": 51.3108084, "lon": 12.3762061, "tags": {"addr:city": "Leipzig", "addr:country": "DE", "addr:housename": "Haus der Demokratie", "addr:housenumber": "152", "addr:postcode": "04277", "addr:street": "Bernhard-G\u00f6ring-Stra\u00dfe", "amenity": "cinema", "email": "feedback@kinobar-leipzig.de", "name": "Kinobar Prager Fr\u00fchling", "opening_hours": "\"je nach Vorstellung\"", "phone": "+49 341 306 5333", "toilets:wheelchair": "yes", "website": "http://www.kinobar-leipzig.de", "wheelchair": "limited", "wikidata": "Q50843796"}}, {"type": "node", "id": 250581913, "lat": 51.3421887, "lon": 12.3723805, "tags": {"addr:city": "Leipzig", "addr:country": "DE", "addr:housenumber": "19a", "addr:postcode": "04109", "addr:street": "Hainstra\u00dfe", "amenity": "cinema", "contact:fax": "+49 341 2173870", "contact:phone": "+49 341 2173865", "name": "Passage-Kinos", "operator": "Passage Kino Betriebs GmbH", "website": "https://passage-kinos.de/", "wheelchair": "limited", "wikidata": "Q50843798"}}, {"type": "node", "id": 250581914, "lat": 51.3374, "lon": 12.3740812, "tags": {"addr:city": "Leipzig", "addr:country": "DE", "addr:housenumber": "44", "addr:postcode": "04109", "addr:street": "Petersstra\u00dfe", "amenity": "cinema", "brand": "CineStar", "brand:wikidata": "Q321889", "brand:wikipedia": "de:Cinestar", "contact:facebook": "https://www.facebook.com/Cinstar.Leipzig", "level": "1", "name": "CineStar", "toilets:wheelchair": "yes", "website": "https://www.cinestar.de/de/kino/leipzig-cinestar/", "wheelchair": "yes"}}, {"type": "node", "id": 251048923, "lat": 51.3195753, "lon": 12.2921967, "tags": {"amenity": "cinema", "brand": "Cineplex", "brand:wikidata": "Q1092476", "brand:wikipedia": "de:Cineplex", "name": "Cineplex", "opening_hours": "\"MONTAG, DIENSTAG, MITTWOCH, DONNERSTAG, SONNTAG, FEIERTAGWir \u00f6ffnen f\u00fcr dich 15 Minuten vor der ersten Vorstellung bis 20:30 UhrFREITAG, SAMSTAGWir \u00f6ffnen f\u00fcr dich 15 Minuten vor der ersten Vorstellung bis 23:30 Uhr\"", "wheelchair": "limited", "wikidata": "Q50843794"}}, {"type": "node", "id": 254014705, "lat": 51.3319403, "lon": 12.3345395, "tags": {"addr:city": "Leipzig", "addr:country": "DE", "addr:housenumber": "50", "addr:postcode": "04229", "addr:street": "Karl-Heine-Stra\u00dfe", "amenity": "cinema", "name": "Schaub\u00fchne Lindenfels", "website": "http://www.schaubuehne.com", "wheelchair": "no", "wikidata": "Q1633121"}}, {"type": "node", "id": 269786785, "lat": 51.3305744, "lon": 12.3323162, "tags": {"addr:city": "Leipzig", "addr:country": "DE", "addr:housenumber": "83", "addr:postcode": "04229", "addr:street": "Karl-Heine-Stra\u00dfe", "amenity": "cinema", "name": "Cineding", "website": "http://www.cineding-leipzig.de/", "wheelchair": "limited", "wikidata": "Q50843792"}}, {"type": "node", "id": 281095400, "lat": 51.380315, "lon": 12.4200095, "tags": {"amenity": "theatre", "name": "Probeb\u00fchne Mockau", "wheelchair": "limited"}}, {"type": "node", "id": 301555895, "lat": 51.3100496, "lon": 12.3713723, "tags": {"addr:city": "Leipzig", "addr:country": "DE", "addr:housenumber": "132", "addr:street": "Kochstra\u00dfe", "amenity": "arts_centre", "name": "Werk 2", "wheelchair": "limited", "wikidata": "Q2560259"}}, {"type": "node", "id": 310395307, "lat": 51.3379663, "lon": 12.3772932, "tags": {"addr:city": "Leipzig", "addr:country": "DE", "addr:housenumber": "2", "addr:postcode": "04109", "addr:street": "Kupfergasse", "amenity": "theatre", "name": "academixer-Keller", "operator": "academixer", "theatre:genre": "cabaret", "toilets:wheelchair": "yes", "website": "https://www.academixer.com/", "wheelchair": "no"}}, {"type": "node", "id": 310395312, "lat": 51.3372948, "lon": 12.3767746, "tags": {"addr:city": "Leipzig", "addr:country": "DE", "addr:housenumber": "4", "addr:postcode": "04109", "addr:street": "Magazingasse", "amenity": "theatre", "name": "Krystallpalast Variet\u00e9 Leipzig", "phone": "+49 341 140660", "theatre:genre": "variety", "toilets:wheelchair": "yes", "website": "https://www.krystallpalast.de/", "wheelchair": "limited", "wikidata": "Q1674439", "wikipedia": "de:Krystallpalast (Leipzig)"}}, {"type": "node", "id": 401788374, "lat": 51.3409947, "lon": 12.3735653, "tags": {"addr:city": "Leipzig", "addr:country": "DE", "addr:housenumber": "9", "addr:postcode": "04109", "addr:street": "Markt", "alt_name": "Leipziger Central Kabarett", "amenity": "theatre", "layer": "2", "level": "2", "name": "Central Kabarett", "theatre:genre": "cabaret", "toilets:wheelchair": "yes", "website": "http://centralkabarett.de", "wheelchair": "yes"}}, {"type": "node", "id": 412049575, "lat": 51.3057636, "lon": 12.3813498, "tags": {"addr:city": "Leipzig", "addr:country": "DE", "addr:housenumber": "49", "addr:postcode": "04277", "addr:street": "Bornaische Stra\u00dfe", "amenity": "arts_centre", "name": "Jugendhaus S\u00fcdpol"}}, {"type": "node", "id": 469633224, "lat": 51.3320118, "lon": 12.3341628, "tags": {"addr:city": "Leipzig", "addr:country": "DE", "addr:housenumber": "29", "addr:postcode": "04177", "addr:street": "H\u00e4hnelstra\u00dfe", "amenity": "theatre", "contact:facebook": "https://www.facebook.com/Westfluegel", "name": "Lindenfels Westfl\u00fcgel", "website": "http://www.westfluegel.de/", "wheelchair": "yes", "wikidata": "Q1556750"}}, {"type": "node", "id": 543364692, "lat": 51.3251014, "lon": 12.3733139, "tags": {"addr:city": "Leipzig", "addr:country": "DE", "addr:housenumber": "46", "addr:postcode": "04275", "addr:street": "Karl-Liebknecht-Stra\u00dfe", "amenity": "cinema", "contact:phone": "+49 341 3039133", "name": "Cin\u00e9math\u00e8que in der NaTo", "opening_hours": "Mo-Su 18:30+", "toilets:wheelchair": "no", "website": "http://www.cinematheque-leipzig.de", "wheelchair": "yes"}}, {"type": "node", "id": 543364700, "lat": 51.3251648, "lon": 12.3733388, "tags": {"addr:city": "Leipzig", "addr:country": "DE", "addr:housenumber": "46", "addr:postcode": "04275", "addr:street": "Karl-Liebknecht-Stra\u00dfe", "amenity": "theatre", "name": "Die NaTo", "phone": "+49 341 3039133", "toilets:wheelchair": "no", "website": "https://www.nato-leipzig.de/", "wheelchair": "yes"}}, {"type": "node", "id": 660507239, "lat": 51.3267708, "lon": 12.3191048, "tags": {"addr:city": "Leipzig", "addr:country": "DE", "addr:housenumber": "7", "addr:postcode": "04179", "addr:street": "Spinnereistra\u00dfe", "amenity": "cinema", "email": "info@luru-kino.de", "name": "Luru-Kino in der Spinnerei", "phone": "+49 341 8799165", "website": "http://www.luru-kino.de", "wheelchair": "limited", "wikidata": "Q50843797"}}, {"type": "node", "id": 677191384, "lat": 51.3102029, "lon": 12.3721415, "tags": {"amenity": "theatre", "name": "Cammerspiele e.V.", "toilets:wheelchair": "no", "wheelchair": "no"}}, {"type": "node", "id": 891854876, "lat": 51.3390391, "lon": 12.3754683, "tags": {"addr:city": "Leipzig", "addr:country": "DE", "addr:housenumber": "2-4", "addr:postcode": "04109", "addr:street": "Grimmaische Stra\u00dfe", "amenity": "theatre", "name": "Kabarett Theater SanftWut", "phone": "+49 3411 961 23 46", "theatre:genre": "cabaret", "website": "https://www.kabarett-theater-sanftwut.de/", "wheelchair": "yes", "wheelchair:description": "Im Treppenaufgang ist ein Fahrstuhl vorhanden. Mit diesem gelangt man in die 1. Etage zum Theater. Das Theater-Kneipchen und der Veranstaltungssaal ist ebenerdig. Ein separates rollstuhlgerechtes WC ist hinter der B\u00fchne vorhanden."}}, {"type": "node", "id": 1166743171, "lat": 51.3424395, "lon": 12.374308, "tags": {"addr:city": "Leipzig", "addr:country": "DE", "addr:housenumber": "17", "addr:postcode": "04109", "addr:street": "Katharinenstra\u00dfe", "alt_name": "Leipziger Pfefferm\u00fchle", "amenity": "theatre", "contact:phone": "+493419603196", "name": "Pfefferm\u00fchle", "theatre:genre": "cabaret", "toilets:wheelchair": "yes", "website": "https://www.kabarett-leipziger-pfeffermuehle.de/", "wheelchair": "yes", "wikidata": "Q1815571", "wikipedia": "de:Leipziger Pfefferm\u00fchle"}}, {"type": "node", "id": 1449130154, "lat": 51.3375012, "lon": 12.3793358, "tags": {"amenity": "theatre", "layer": "-2", "name": "mb", "toilets:wheelchair": "yes", "wheelchair": "yes"}}, {"type": "node", "id": 1449630405, "lat": 51.3409943, "lon": 12.3788504, "tags": {"addr:city": "Leipzig", "addr:country": "DE", "addr:housenumber": "6-10", "addr:postcode": "04109", "addr:street": "Nikolaistra\u00dfe", "amenity": "theatre", "name": "Funzel", "theatre:genre": "cabaret", "toilets:wheelchair": "yes", "website": "https://leipziger-funzel.de/", "wheelchair": "yes"}}, {"type": "node", "id": 1519411858, "lat": 51.3215002, "lon": 12.301349, "tags": {"amenity": "theatre", "name": "Theatrium gro\u00dfstadtKINDER e.V", "wheelchair": "yes"}}, {"type": "node", "id": 1567185923, "lat": 51.3025851, "lon": 12.435735, "tags": {"addr:city": "Leipzig", "addr:country": "DE", "addr:postcode": "04289", "amenity": "arts_centre", "name": "Jugend- und Freizeitzentrum", "wheelchair": "yes"}}, {"type": "node", "id": 2323110426, "lat": 51.3200915, "lon": 12.3744414, "tags": {"amenity": "theatre", "name": "Alte Schlosserei", "source": "http://www.alte-schlosserei.de/kontakt.php"}}, {"type": "node", "id": 2401271275, "lat": 51.3390459, "lon": 12.4014855, "tags": {"addr:city": "Leipzig", "addr:street": "Dresdner Stra\u00dfe", "amenity": "cinema", "cinema:3D": "yes", "contact:phone": "+49 341 6492111", "contact:website": "http://leipzig.cineprog.net/", "description": "3D-Film", "drive_in": "no", "name": "Regina Palast", "payment:cash": "yes", "payment:maestro": "yes", "screen": "6", "toilets:wheelchair": "no", "website": "https://leipzig.cineprog.net/", "wheelchair": "limited", "wikidata": "Q50843799"}}, {"type": "node", "id": 2583482492, "lat": 51.3259503, "lon": 12.3173173, "tags": {"addr:city": "Leipzig", "addr:country": "DE", "addr:housenumber": "7", "addr:postcode": "04179", "addr:street": "Spinnereistra\u00dfe", "addr:unit": "Geb\u00e4ude 11, Raum 09", "amenity": "arts_centre", "email": "info@raumtotal.de", "name": "BERND K\u00d6RSTEN fotografie", "website": "http://www.raumtotal.de/"}}, {"type": "node", "id": 2694427794, "lat": 51.3308301, "lon": 12.3723417, "tags": {"addr:city": "Leipzig", "addr:housenumber": "4", "addr:postcode": "04107", "addr:street": "Flo\u00dfplatz", "amenity": "theatre", "name": "Schauspiel Leipzig Probeb\u00fchne", "operator": "Schauspiel Leipzig", "wikidata": "Q49234136"}}, {"type": "node", "id": 2899715701, "lat": 51.336023, "lon": 12.4061259, "tags": {"addr:city": "Leipzig", "addr:country": "DE", "addr:housenumber": "20", "addr:postcode": "04317", "addr:street": "Kippenbergstra\u00dfe", "amenity": "arts_centre", "internet_access": "no", "level": "0", "name": "Atari", "website": "http://bildet-laeden.de/", "wheelchair": "no"}}, {"type": "node", "id": 4102504489, "lat": 51.3520296, "lon": 12.3732185, "tags": {"addr:housenumber": "4", "addr:postcode": "04105", "addr:street": "Nordplatz", "amenity": "theatre", "email": "post@praetoriusleipzig.de", "name": "Jugendmusiziergruppe Michael Praetorius e.V.", "phone": "+49 341 5648706", "website": "https://www.praetoriusleipzig.de"}}, {"type": "node", "id": 4589428601, "lat": 51.3452873, "lon": 12.4123678, "tags": {"addr:city": "Leipzig", "addr:country": "DE", "addr:housenumber": "113b", "addr:postcode": "04315", "addr:street": "Eisenbahnstra\u00dfe", "amenity": "arts_centre", "email": "mail@djh-leipzig.de", "name": "Das Japanische Haus e.V.", "name:ja": "\u65e5\u672c\u306e\u5bb6", "opening_hours": "Th 17:00-22:00, Sa 16:00-22:00", "website": "http://djh-leipzig.de/", "wheelchair": "limited"}}, {"type": "node", "id": 4614404889, "lat": 51.3492133, "lon": 12.3772534, "tags": {"addr:postcode": "04105", "amenity": "theatre", "name": "UBI Theatre", "name:de": "UBI Theatre", "phone": "+491622741365"}}, {"type": "node", "id": 4705719992, "lat": 51.3451582, "lon": 12.4046706, "tags": {"addr:city": "Leipzig", "addr:housenumber": "27", "addr:postcode": "04315", "addr:street": "Konradstra\u00dfe", "amenity": "theatre", "description": "Das Nachbarschaftstheater im Leipziger Osten", "email": "info@ost-passage-theater.de", "level": "1", "name": "Ost-Passage Theater", "website": "http://ost-passage-theater.de/", "wheelchair": "no"}}, {"type": "node", "id": 4705735329, "lat": 51.3457773, "lon": 12.4071731, "tags": {"addr:city": "Leipzig", "addr:country": "DE", "addr:housenumber": "49", "addr:postcode": "04315", "addr:street": "Hildegardstra\u00dfe", "amenity": "arts_centre", "name": "Wilde Hilde"}}, {"type": "node", "id": 4705740433, "lat": 51.345509, "lon": 12.4038103, "tags": {"addr:city": "Leipzig", "addr:country": "DE", "addr:housenumber": "66", "addr:postcode": "04315", "addr:street": "Eisenbahnstra\u00dfe", "amenity": "arts_centre", "name": "\"Inge & Walter\" - Seniorenb\u00fcro Ost", "wheelchair": "no"}}, {"type": "node", "id": 4933368821, "lat": 51.3026908, "lon": 12.3742425, "tags": {"addr:city": "Leipzig", "addr:country": "DE", "addr:postcode": "04277", "amenity": "arts_centre", "name": "Conne Island", "toilets:wheelchair": "yes", "wheelchair": "yes", "wikidata": "Q1126175"}}, {"type": "node", "id": 5218101621, "lat": 51.3413829, "lon": 12.4011024, "tags": {"amenity": "theatre", "name": "Theaterpack/ Laden auf Zeit"}}, {"type": "node", "id": 5539344644, "lat": 51.338186, "lon": 12.3337497, "tags": {"addr:city": "Leipzig", "addr:housenumber": "22", "addr:postcode": "04177", "addr:street": "Demmeringstra\u00dfe", "amenity": "theatre", "name": "Theater der Jungen Welt \"Kleine B\u00fchne\"", "operator": "Theater der Jungen Welt"}}, {"type": "node", "id": 5745941627, "lat": 51.3264463, "lon": 12.3194469, "tags": {"amenity": "theatre", "name": "Schauspiel Leipzig Residenz"}}, {"type": "node", "id": 5938243885, "lat": 51.3379976, "lon": 12.377008, "tags": {"addr:housenumber": "2", "addr:street": "Kupfergasse", "amenity": "theatre", "name": "Kupfersaal"}}, {"type": "node", "id": 6784969906, "lat": 51.322677, "lon": 12.3402852, "tags": {"addr:city": "Leipzig", "addr:country": "DE", "addr:housenumber": "52", "addr:postcode": "04229", "addr:street": "Brockhausstra\u00dfe", "amenity": "arts_centre", "description": "Kreative Werkstatt", "name": "unARTig", "phone": "+493414798295"}}, {"type": "node", "id": 6864732155, "lat": 51.3340401, "lon": 12.3261801, "tags": {"addr:city": "Leipzig", "addr:country": "DE", "addr:housenumber": "83", "addr:postcode": "04177", "addr:street": "L\u00fctzner Stra\u00dfe", "amenity": "arts_centre", "name": "Kulturwarenfabrik", "website": "http://www.kulturwarenfabrik.com"}}, {"type": "node", "id": 7493939860, "lat": 51.3260856, "lon": 12.3159052, "tags": {"addr:city": "Leipzig", "addr:housenumber": "7", "addr:postcode": "04179", "addr:street": "Spinnereistra\u00dfe", "addr:unit": "Geb\u00e4ude 7", "amenity": "theatre", "name": "Leipziger Tanztheater", "website": "leipzigertanztheater.de/"}}, {"type": "node", "id": 7493939861, "lat": 51.325969, "lon": 12.315619, "tags": {"addr:city": "Leipzig", "addr:housenumber": "7", "addr:postcode": "04179", "addr:street": "Spinnereistra\u00dfe", "addr:unit": "Geb\u00e4ude 7", "amenity": "theatre", "name": "LOFFT - Das Theater", "website": "www.lofft.de/"}}, {"type": "node", "id": 7625398885, "lat": 51.3443029, "lon": 12.3858758, "tags": {"amenity": "arts_centre", "contact:website": "https://aokunsthalle.com/", "name": "a&o Kunsthalle"}}, {"type": "node", "id": 7794524861, "lat": 51.3306286, "lon": 12.3218131, "tags": {"addr:housenumber": "8b", "addr:street": "Saalfelder Stra\u00dfe", "amenity": "arts_centre", "name": "Kunstkraftwerk Leipzig", "website": "http://www.kunstkraftwerk-leipzig.com/"}}, {"type": "node", "id": 7807349361, "lat": 51.3515023, "lon": 12.4082631, "tags": {"addr:city": "Leipzig", "addr:housenumber": "135", "addr:postcode": "04347", "addr:street": "Gorkistra\u00dfe", "amenity": "arts_centre", "contact:facebook": "https://www.facebook.com/gaesteservice", "name": "Kopfsalat G\u00e4steservice"}}, {"type": "node", "id": 9251466639, "lat": 51.3713314, "lon": 12.4221469, "tags": {"addr:city": "Leipzig", "addr:housenumber": "22", "addr:postcode": "04347", "addr:street": "Sternbachstra\u00dfe", "amenity": "theatre", "name": "Gartentheater Abtnaundorf", "website": "https://www.gartentheater-abtnaundorf.de"}}, {"type": "node", "id": 9725081761, "lat": 51.3381307, "lon": 12.3675653, "tags": {"addr:city": "Leipzig", "addr:housenumber": "6", "addr:postcode": "04109", "addr:street": "Kolonnadenstra\u00dfe", "amenity": "arts_centre", "contact:facebook": "https://www.facebook.com/people/KV-Leipzig/100005454015455", "contact:instagram": "kv_leipzig", "email": "info@kunstverein-leipzig.org", "name": "Kunstverein Leipzig", "opening_hours": "We 14:00-18:00; Fr-Sa 16:00-20:00", "website": "https://kunstverein-leipzig.org", "wheelchair": "no"}}]}