{"version": 0.6, "generator": "Overpass API 0.7.57 93a4d346", "osm3s": {"timestamp_osm_base": "2022-05-20T09:15:56Z", "timestamp_areas_base": "2022-05-20T07:51:58Z", "copyright": "The data included in this document is from www.openstreetmap.org. The data is made available under ODbL."}, "elements": [{"type": "node", "id": 264496513, "lat": 51.337711, "lon": 12.3736733, "tags": {"addr:city": "Leipzig", "addr:country": "DE", "addr:housenumber": "27", "addr:postcode": "04109", "addr:street": "Burgstra\u00dfe", "amenity": "university", "level": "3", "name": "Juridicum", "toilets:wheelchair": "yes", "wheelchair": "yes"}}, {"type": "node", "id": 266977484, "lat": 51.3750015, "lon": 12.4115982, "tags": {"addr:city": "Leipzig", "addr:postcode": "04357", "addr:street": "Essener Stra\u00dfe", "amenity": "library", "name": "Bibliothek Mockau", "operator": "Leipziger St\u00e4dtische Bibliotheken", "website": "https://stadtbibliothek.leipzig.de/unsere-bibliotheken/bibliothek-mockau/", "wheelchair": "limited", "wheelchair:description": "mit Lift"}}, {"type": "node", "id": 268135138, "lat": 51.3302479, "lon": 12.4435454, "tags": {"addr:city": "Leipzig", "addr:housenumber": "6", "addr:postcode": "04316", "addr:street": "Schulstra\u00dfe", "amenity": "school", "name": "Oberschule M\u00f6lkau"}}, {"type": "node", "id": 268252994, "lat": 51.3299086, "lon": 12.4444486, "tags": {"addr:city": "Leipzig", "addr:housenumber": "8", "addr:postcode": "04316", "addr:street": "Schulstra\u00dfe", "amenity": "school", "name": "Grundschule M\u00f6lkau"}}, {"type": "node", "id": 270650899, "lat": 51.3624969, "lon": 12.3589143, "tags": {"addr:city": "Leipzig", "addr:housenumber": "72", "addr:postcode": "04155", "addr:street": "Eisenacher Stra\u00dfe", "amenity": "music_school", "fax": "+49 341 55008333", "name": "Musikschule Neue Musik Leipzig", "operator": "Neue Musik Leipzig gemeinn\u00fctzige GmbH", "operator:type": "private_non_profit", "phone": "+49 341 55008344", "website": "https://www.neue-musik-leipzig.de/"}}, {"type": "node", "id": 293893433, "lat": 51.3680679, "lon": 12.3834886, "tags": {"addr:city": "Leipzig", "addr:country": "DE", "addr:housenumber": "74", "addr:postcode": "04129", "addr:street": "Geibelstra\u00dfe", "addr:suburb": "Eutritzsch", "amenity": "school", "created_by": "Potlatch 0.10b", "name": "Adam-Friedrich-Oeser-Grundschule"}}, {"type": "node", "id": 311739597, "lat": 51.3405118, "lon": 12.3801382, "tags": {"addr:city": "Leipzig", "addr:country": "DE", "addr:housenumber": "6", "addr:postcode": "04109", "addr:street": "Goethestra\u00dfe", "amenity": "university", "name": "Studentenwerk; Akademische Verwaltung", "wheelchair": "limited"}}, {"type": "node", "id": 341968321, "lat": 51.3111794, "lon": 12.37621, "tags": {"addr:city": "Leipzig", "addr:housenumber": "152", "addr:postcode": "04277", "addr:street": "Bernhard-G\u00f6ring-Stra\u00dfe", "amenity": "library", "level": "1", "name": "Umweltbibliothek Leipzig", "website": "https://www.oekoloewe.de/umweltbibliothek-leipzig.html", "wheelchair": "limited", "wikidata": "Q1714417"}}, {"type": "node", "id": 370039326, "lat": 51.3372008, "lon": 12.3775362, "tags": {"addr:housenumber": "6", "addr:postcode": "04109", "addr:street": "Schillerstra\u00dfe", "amenity": "university", "internet_access": "wlan", "name": "Fakult\u00e4t f\u00fcr Geschichte, Kunst- und Regionalwissenschaften", "website": "https://www.gkr.uni-leipzig.de/", "wheelchair": "limited"}}, {"type": "node", "id": 415886010, "lat": 51.3379784, "lon": 12.3735613, "tags": {"amenity": "university", "name": "Institut f\u00fcr Kommunikations- und Medienwissenschaft", "wheelchair": "limited"}}, {"type": "node", "id": 620944116, "lat": 51.3310895, "lon": 12.3797826, "tags": {"amenity": "school", "education": "music", "name": "Musikschule Johann Sebastian Bach", "note": "Fachbereich Tanz"}}, {"type": "node", "id": 621489719, "lat": 51.3319423, "lon": 12.3784088, "tags": {"amenity": "school", "education": "music", "name": "Tanz- und Kunst-Akademie"}}, {"type": "node", "id": 622597390, "lat": 51.3153042, "lon": 12.3088514, "tags": {"amenity": "driving_school", "name": "Becker & Reichert"}}, {"type": "node", "id": 628101877, "lat": 51.3461643, "lon": 12.4146541, "tags": {"amenity": "school", "name": "DAA - Jugendtonne"}}, {"type": "node", "id": 628101882, "lat": 51.3456608, "lon": 12.4144915, "tags": {"amenity": "school", "name": "DAA", "toilets:wheelchair": "no", "wheelchair": "yes"}}, {"type": "node", "id": 746492509, "lat": 51.3117486, "lon": 12.3729683, "tags": {"addr:city": "Leipzig", "addr:country": "DE", "addr:housenumber": "152", "addr:postcode": "04277", "addr:street": "Karl-Liebknecht-Stra\u00dfe", "amenity": "driving_school", "name": "Fahrschule Falke", "opening_hours": "Mo-Fr 08:00-18:00; Sa 08:00-12:00", "survey:date": "2020-02-28", "wheelchair": "limited"}}, {"type": "node", "id": 752754904, "lat": 51.3327247, "lon": 12.3668529, "tags": {"addr:city": "Leipzig", "addr:country": "DE", "addr:housename": "Hochschule f\u00fcr Musik und Theater \u201eFelix Mendelssohn Bartholdy\u201c", "addr:housenumber": "8", "addr:postcode": "04107", "addr:street": "Grassistra\u00dfe", "amenity": "university", "contact:website": "https://www.hmt-leipzig.de/", "name": "Hochschule f\u00fcr Musik und Theater \u201eFelix Mendelssohn Bartholdy\u201c Leipzig"}}, {"type": "node", "id": 869116249, "lat": 51.3420198, "lon": 12.4378443, "tags": {"addr:city": "Leipzig", "addr:country": "DE", "addr:housenumber": "58", "addr:postcode": "04328", "addr:street": "Geithainer Stra\u00dfe", "amenity": "school", "name": "Berufliches Schulzentrum 4", "website": "https://www.karl-heine-schule-leipzig.de/bildungs%C2%ADgaenge4-maschinen%C2%ADbau-gesundheit-soziales-ernaehrungs%C2%ADwissenschaft-mechaniker/", "wheelchair": "no"}}, {"type": "node", "id": 897615823, "lat": 51.3457475, "lon": 12.2979882, "tags": {"addr:city": "Leipzig", "addr:country": "DE", "addr:housenumber": "10", "addr:postcode": "04178", "addr:street": "Gutenbergstra\u00dfe", "amenity": "school", "contact:email": "fs-leipzig@bsw-mail.de", "contact:mobile": "+49 151 52718252", "contact:phone": "+49 341 4463540", "contact:website": "https://www.bsw-fachschulen.de/", "name": "bsw-Fachschule f\u00fcr Technik Leipzig", "operator": "Bildungswerk der S\u00e4chsischen Wirtschaft gGmbH"}}, {"type": "node", "id": 928552398, "lat": 51.3685297, "lon": 12.3405918, "tags": {"amenity": "driving_school", "name": "Reimertshofer Verkehrsschulen"}}, {"type": "node", "id": 954729901, "lat": 51.3633412, "lon": 12.3610997, "tags": {"addr:city": "Leipzig", "addr:housenumber": "113", "addr:postcode": "04155", "addr:street": "Georg-Schumann-Stra\u00dfe", "amenity": "driving_school", "email": "fahrschule-loehr@t-online.de", "name": "Fahrschule L\u00f6hr", "note": "Fahrschule aller Klassen", "phone": "+49 177 3404407", "source": "Inhaber Peter L\u00f6hr", "website": "http://www.fahrschule-loehr.de", "wheelchair": "no"}}, {"type": "node", "id": 958308976, "lat": 51.3616862, "lon": 12.3698132, "tags": {"amenity": "driving_school", "license_classes": "all", "name": "Fahrschule D. Schmidt", "operator": "Dietmar Schmidt"}}, {"type": "node", "id": 980243204, "lat": 51.362992, "lon": 12.3618269, "tags": {"addr:city": "Leipzig", "addr:country": "DE", "addr:housenumber": "105", "addr:postcode": "04155", "addr:street": "Georg-Schumann-Stra\u00dfe", "amenity": "library", "changing_table": "room", "elevator": "yes", "email": "bibliothek.gohlis@leipzig.de", "internet_access": "wlan", "internet_access:fee": "customers", "kids_area": "indoor", "name": "Bibliothek Gohlis \"Erich Loest\"", "opening_hours": "Mo-Tu 10:00-19:00; We 15:00-19:00; Th-Fr 10:00-19:00", "phone": "+49 341 1235255", "website": "https://stadtbibliothek.leipzig.de/unsere-bibliotheken/bibliothek-gohlis-erich-loest/", "wheelchair": "yes"}}, {"type": "node", "id": 1067773829, "lat": 51.3558835, "lon": 12.4155779, "tags": {"addr:city": "Leipzig", "addr:country": "DE", "addr:housenumber": "56", "addr:postcode": "04347", "addr:street": "Shukowstra\u00dfe", "amenity": "library", "name": "Bibliothek Sch\u00f6nefeld", "opening_hours": "Mo 10:00-15:00; Tu 10:00-13:00,14:00-18:00; We 13:00-18:00; Th 10:00-13:15,14:00-18:00", "operator": "Stadtbibliothek Leipzig", "website": "https://stadtbibliothek.leipzig.de/unsere-bibliotheken/bibliotheken-in-den-stadtteilen/bibliothek-schoenefeld/", "wheelchair": "yes"}}, {"type": "node", "id": 1106389879, "lat": 51.3455989, "lon": 12.3568955, "tags": {"amenity": "driving_school", "name": "Heyne"}}, {"type": "node", "id": 1108250098, "lat": 51.307914, "lon": 12.3777622, "tags": {"amenity": "driving_school", "name": "Fahrschule Top Drive", "survey:date": "2020-02-28"}}, {"type": "node", "id": 1121258531, "lat": 51.3102322, "lon": 12.3725301, "tags": {"amenity": "driving_school", "name": "Fahrschule Richter", "operator": "Richter"}}, {"type": "node", "id": 1124773183, "lat": 51.3515861, "lon": 12.3747007, "tags": {"amenity": "driving_school", "name": "Fahrschule Ferch", "website": "http://fahrschule-ferch.de", "wheelchair": "no"}}, {"type": "node", "id": 1129793181, "lat": 51.3834867, "lon": 12.2711257, "tags": {"amenity": "library", "name": "Stadtteilbibliothek L\u00fctzschena-Stahmeln", "opening_hours": "Mo 14:00-18:00; Tu 10:00-12:00,14:00-18:00; Th 14:00-18:00", "wheelchair": "no"}}, {"type": "node", "id": 1181040026, "lat": 51.3605559, "lon": 12.3695577, "tags": {"addr:city": "Leipzig", "addr:country": "DE", "addr:housename": "URANIA-Haus", "addr:housenumber": "3a", "addr:postcode": "04155", "addr:street": "L\u00fctzowstra\u00dfe", "alt_name": "URANIA", "amenity": "school", "name": "URANIA Leipzig e.V."}}, {"type": "node", "id": 1327552597, "lat": 51.3217247, "lon": 12.3312571, "tags": {"amenity": "library", "name": "Buchkinder"}}, {"type": "node", "id": 1329679314, "lat": 51.3503679, "lon": 12.3739712, "tags": {"amenity": "driving_school", "name": "Dieterich"}}, {"type": "node", "id": 1449129150, "lat": 51.3381159, "lon": 12.3786361, "tags": {"amenity": "library", "name": "Campus-Bibliothek", "name:ja": "\u5927\u5b66\u56f3\u66f8\u9928", "opening_hours": "24/7", "operator": "Universit\u00e4t Leipzig", "wheelchair": "yes"}}, {"type": "node", "id": 1457545875, "lat": 51.31932, "lon": 12.3671949, "tags": {"amenity": "music_school", "level": "0", "name": "Jazz~Klavierschule", "opening_hours": "Mo-Tu 10:00-13:00,15:00-20:00", "operator": "Ferry Dahlke", "operator:type": "private", "wheelchair": "no"}}, {"type": "node", "id": 1515486215, "lat": 51.3400842, "lon": 12.3719374, "tags": {"addr:city": "Leipzig", "addr:country": "DE", "addr:housenumber": "10", "addr:postcode": "04109", "addr:street": "Dittrichring", "amenity": "college", "brand": "SAE Institute", "brand:wikidata": "Q201438", "brand:wikipedia": "en:SAE Institute", "email": "saeleipzig@sae.edu", "name": "SAE Institute", "name:en": "SAE Instititute GmbH", "opening_hours": "Mo-Fr 10:00-21:00", "operator": "SAE Institute GmbH", "website": "http://leipzig.sae.edu"}}, {"type": "node", "id": 1531257451, "lat": 51.3552379, "lon": 12.3703914, "tags": {"amenity": "school", "name": "Fernsehakademie Mitteldeutschland"}}, {"type": "node", "id": 1616108687, "lat": 51.3210601, "lon": 12.3679563, "tags": {"amenity": "driving_school", "name": "Fahrschule Mathias Ulig"}}, {"type": "node", "id": 1645294499, "lat": 51.3228924, "lon": 12.3721324, "tags": {"amenity": "driving_school", "name": "Top Drive"}}, {"type": "node", "id": 1673864592, "lat": 51.33865, "lon": 12.3722682, "tags": {"addr:city": "Leipzig", "addr:country": "DE", "addr:housenumber": "15-16", "addr:postcode": "04109", "addr:street": "Thomaskirchhof", "amenity": "library", "email": "Funk-Kunath@bach-leipzig.de", "fax": "+49 341 9137155", "name": "Bach-Archiv Leipzig", "opening_hours": "Mo-Fr 10:00-16:00; Sa-Su off", "phone": "+49 341 9137221", "ref:isil": "DE-L326", "website": "https://www.bach-leipzig.de/", "wheelchair": "limited", "wikidata": "Q798038", "wikipedia": "de:Bach-Archiv Leipzig"}}, {"type": "node", "id": 1673864610, "lat": 51.3274317, "lon": 12.3981469, "tags": {"addr:city": "Leipzig", "addr:country": "DE", "addr:housenumber": "2", "addr:postcode": "04317", "addr:street": "Karl-Siegismund-Stra\u00dfe", "amenity": "library", "email": "hsw@shs.smk.sachsen.de", "fax": "+49 341 2690466", "name": "Bibliothek H\u00f6r- und Sprachgesch\u00e4digtenwesen Leipzig", "opening_hours": "Mo 09:00-12:00,13:00-16:00; Tu 09:00-12:00,13:00-17:00; We-Th 09:00-12:00,13:00-16:00; Fr 09:00-12:00; Sa-Su off", "phone": "+49 341 2690423", "ref:isil": "DE-L245", "website": "http://www.samuel-heinicke-schule-leipzig.de/", "wikidata": "Q28738917"}}, {"type": "node", "id": 1673864615, "lat": 51.3521824, "lon": 12.4289396, "tags": {"addr:city": "Leipzig", "addr:country": "DE", "addr:housenumber": "15", "addr:postcode": "04318", "addr:street": "Permoserstra\u00dfe", "amenity": "library", "email": "bibinfo@ufz.de", "fax": "+49 341 2351380", "name": "Bibliothek der Helmholtz-Zentrum f\u00fcr Umweltforschung GmbH", "opening_hours": "Mo-Th 08:30-16:00; Fr 08:30-15:00; Sa-Su off", "phone": "+49 341 2351812", "ref:isil": "DE-L97", "website": "https://www.ufz.de/index.php?de=635", "wikidata": "Q28738083"}}, {"type": "node", "id": 1673864622, "lat": 51.306836, "lon": 12.436986, "tags": {"access": "permit", "addr:city": "Leipzig", "addr:country": "DE", "addr:housenumber": "39", "addr:postcode": "04289", "addr:street": "Str\u00fcmpellstra\u00dfe", "amenity": "library", "email": "langu@medizin.uni-leipzig.de", "fax": "+49 341 8651483", "name": "Bibliothek", "opening_hours": "Mo-Th 10:00-18:00; Fr 08:00-16:00; Sa-Su off", "phone": "+49 341 8651437", "ref:isil": "DE-L294"}}, {"type": "node", "id": 1673864630, "lat": 51.3333402, "lon": 12.3678545, "tags": {"amenity": "library", "email": "bibliothek@hgb-leipzig.de", "fax": "+49 341 2135277", "name": "Bibliothek der Hochschule f\u00fcr Grafik und Buchkunst Leipzig", "opening_hours": "Tu 11:00-17:00; We-Th 11:00-19:00; Fr 11:00-16:00; Sa-Mo off", "phone": "+49 341 2135156", "ref:isil": "DE-L242", "website": "http://www.hgb-leipzig.de/bibliothek", "wheelchair": "yes", "wikidata": "Q28738087"}}, {"type": "node", "id": 1673864643, "lat": 51.3328532, "lon": 12.3664573, "tags": {"amenity": "library", "email": "bibliothek@hmt-leipzig.de", "fax": "+49 341 2144634", "name": "Bibliothek der Hochschule f\u00fcr Musik und Theater \u201eFelix Mendelssohn Bartholdy\u201c Leipzig", "opening_hours": "Mo-Th 11:00-19:00; Fr 11:00-14:00; Sa-Su off", "phone": "+49 341 2144630", "ref:isil": "DE-L152", "website": "https://www.hmt-leipzig.de/"}}, {"type": "node", "id": 1673864657, "lat": 51.3404106, "lon": 12.3793972, "tags": {"addr:city": "Leipzig", "addr:country": "DE", "addr:housenumber": "9-13", "addr:postcode": "04109", "addr:street": "Ritterstra\u00dfe", "amenity": "library", "email": "akl@degruyter.com", "fax": "+49 341 4996186", "name": "K. G. Saur Verlag GmbH & Co. KG", "phone": "+49 341 4996185", "ref:isil": "DE-L27"}}, {"type": "node", "id": 1673864678, "lat": 51.3339826, "lon": 12.3654481, "tags": {"amenity": "library", "email": "books@gfzk.de", "fax": "+49 341 1408111", "name": "Bibliothek der Stiftung Galerie f\u00fcr Zeitgen\u00f6ssische Kunst Leipzig", "opening_hours": "Tu-We 11:00-17:00; Th 14:00-19:00; Fr 11:00-17:00; Sa-Mo off", "phone": "+49 341 1408112", "ref:isil": "DE-L330", "website": "https://www.gfzk.de/", "wikidata": "Q28739284"}}, {"type": "node", "id": 1673864685, "lat": 51.3326638, "lon": 12.3699867, "tags": {"addr:city": "Leipzig", "addr:country": "DE", "addr:housenumber": "1", "addr:postcode": "04107", "addr:street": "Simsonplatz", "amenity": "library", "email": "ausleihe@bverwg.bund.de", "fax": "+49 341 20071602", "name": "Bibliothek des Bundesverwaltungsgericht", "opening_hours": "Mo-Th 07:45-18:00; Fr 07:45-15:00; Sa-Su off", "phone": "+49 341 20071632", "ref:isil": "DE-B791", "website": "https://www.bverwg.de/", "wikidata": "Q28739183"}}, {"type": "node", "id": 1673864690, "lat": 51.3187587, "lon": 12.3954552, "tags": {"addr:city": "Leipzig", "addr:country": "DE", "addr:housenumber": "1", "addr:postcode": "04103", "addr:street": "Perlickstra\u00dfe", "amenity": "library", "contact:email": "bibliothek@izi.fraunhofer.de", "contact:fax": "+49-341-355369245", "contact:phone": "+49-341-355369240", "name": "Bibliothek des IZI", "official_name": "Bibliothek des Fraunhofer Institut f\u00fcr Zelltherapie und Immunologie", "opening_hours": "Sa-Su off; Mo-Th 09:00-01:00, Fr 09:00-14:00", "ref:isil": "DE-L329", "wikidata": "Q28727666"}}, {"type": "node", "id": 1673864701, "lat": 51.3373793, "lon": 12.387171, "tags": {"addr:city": "Leipzig", "addr:country": "DE", "addr:housenumber": "5-11", "addr:postcode": "04103", "addr:street": "Johannisplatz", "amenity": "library", "email": "grassimuseum@leipzig.de", "fax": "+49 341 2229200", "name": "Bibliothek des Museums f\u00fcr Angewandte Kunst", "official_name": "Bibliothek des Museums f\u00fcr Angewandte Kunst Leipzig", "opening_hours": "We-Th 10:00-20:00; Fr-Tu off", "phone": "+49 341 2229109", "ref:isil": "DE-L38", "toilets:wheelchair": "yes", "website": "http://www.grassimuseum.de/ausstellungen.html", "wheelchair": "yes", "wikidata": "Q1543524", "wikipedia": "en:Leipzig Museum of Applied Arts"}}, {"type": "node", "id": 1673864717, "lat": 51.3468949, "lon": 12.4721045, "tags": {"addr:city": "Leipzig", "addr:country": "DE", "addr:housenumber": "9", "addr:postcode": "04328", "addr:street": "Schongauerstra\u00dfe", "amenity": "library", "email": "bibliothek@ifl-leipzig.de", "fax": "+49 341 2556598", "name": "Bibliothek des Leibniz-Institut f\u00fcr L\u00e4nderkunde e.V.", "opening_hours": "Tu-Th 08:00-18:30; Fr 08:00-16:00; Sa-Mo off", "phone": "+49 341 2556529", "ref:isil": "DE-185", "website": "https://www.ifl-leipzig.de/", "wikidata": "Q28739134"}}, {"type": "node", "id": 1673864734, "lat": 51.3344945, "lon": 12.3889196, "tags": {"addr:city": "Leipzig", "addr:country": "DE", "addr:housenumber": "1a", "addr:postcode": "04103", "addr:street": "Stephanstra\u00dfe", "amenity": "library", "email": "bibliothek@cbs.mpg.de", "fax": "+49 341 9940160", "name": "Bibliothek des Max-Planck-Institut f\u00fcr Kognitions- und Neurowissenschaften", "opening_hours": "Mo-Fr 08:30-17:00; Sa-Su off", "phone": "+49 341 9940117", "ref:isil": "DE-L322", "website": "https://www.cbs.mpg.de/lib/index.html", "wheelchair": "yes", "wikidata": "Q28720118"}}, {"type": "node", "id": 1673864745, "lat": 51.341737, "lon": 12.391174, "tags": {"addr:city": "Leipzig", "addr:country": "DE", "addr:housenumber": "22", "addr:postcode": "04103", "addr:street": "Inselstra\u00dfe", "amenity": "library", "email": "bruegge@mis.mpg.de", "fax": "+49 341 9959703", "name": "Bibliothek des Max-Planck-Institut f\u00fcr Mathematik in den Naturwissenschaften", "opening_hours": "Mo-Fr 08:30-16:00; Sa-Su off", "phone": "+49 341 9959701", "ref:isil": "DE-L323", "website": "https://www.mis.mpg.de/", "wikidata": "Q28720133"}}, {"type": "node", "id": 1673864763, "lat": 51.3214371, "lon": 12.394594, "tags": {"addr:city": "Leipzig", "addr:country": "DE", "addr:housenumber": "6", "addr:postcode": "04103", "addr:street": "Deutscher Platz", "amenity": "library", "email": "library@eva.mpg.de", "fax": "+49 341 3550119", "name": "Bibliothek des Max-Planck-Institutes f\u00fcr evolution\u00e4re Anthropologie", "opening_hours": "Mo-Th 11:00-17:00; Fr 11:00-13:00; Sa-Su off", "phone": "+49 341 3550140", "ref:isil": "DE-L321", "website": "https://www.eva.mpg.de/english/library.htm", "wheelchair": "yes", "wikidata": "Q28720093"}}, {"type": "node", "id": 1673864791, "lat": 51.3378173, "lon": 12.3874325, "tags": {"addr:city": "Leipzig", "addr:country": "DE", "addr:housenumber": "5-11", "addr:postcode": "04103", "addr:street": "Johannisplatz", "amenity": "library", "email": "bibliothek@ses.smwk.sachsen.de", "fax": "+49 341 9731909", "name": "Bibliothek des Museums f\u00fcr V\u00f6lkerkunde", "official_name": "Bibliothek des Museums f\u00fcr V\u00f6lkerkunde zu Leipzig", "opening_hours": "Mo 13:00-18:00; Tu 10:00-14:00; We-Th 13:00-18:00; Fr-Su off", "phone": "+49 341 9731919", "ref:isil": "DE-L228", "toilets:wheelchair": "yes", "website": "https://www.mvl-grassimuseum.de/", "wheelchair": "yes"}}, {"type": "node", "id": 1673864823, "lat": 51.3419552, "lon": 12.3763898, "tags": {"addr:city": "Leipzig", "addr:country": "DE", "addr:housenumber": "3", "addr:postcode": "04109", "addr:street": "B\u00f6ttcherg\u00e4\u00dfchen", "amenity": "library", "contact:email": "Stadtmuseum@leipzig.de", "contact:fax": "+49-341-9651352", "contact:phone": "+49-341-9651333", "name": "Bibliothek des Stadtgeschichtlichen Museums", "opening_hours": "Tu-Th 14:00-18:00; Fr-Mo off", "ref:isil": "DE-L243", "website": "https://www.stadtgeschichtliches-museum-leipzig.de/", "wheelchair": "yes", "wikidata": "Q28738088"}}, {"type": "node", "id": 1673864829, "lat": 51.3673955, "lon": 12.3403375, "tags": {"addr:city": "Leipzig", "addr:country": "DE", "addr:housenumber": "8", "addr:postcode": "04159", "addr:street": "Gustav-K\u00fchn-Stra\u00dfe", "amenity": "library", "email": "andrea.grund@smul.sachsen.de", "fax": "+49 341 9174142", "name": "Bibliothek des S\u00e4chsischen Landesamtes f\u00fcr Umwelt, Landwirtschaft und Geologie", "phone": "+49 341 9174260", "ref:isil": "DE-L238", "website": "https://www.smul.sachsen.de/lfulg/7074.htm"}}, {"type": "node", "id": 1673864911, "lat": 51.3830825, "lon": 12.3800497, "tags": {"addr:city": "Leipzig", "addr:country": "DE", "addr:housenumber": "141", "addr:postcode": "04129", "addr:street": "Delitzscher Stra\u00dfe", "amenity": "library", "email": "fachbibliothek@sanktgeorg.de", "fax": "+49 341 9092087", "name": "Fachbibliothek/Patientenbibliothek Klinikum St. Georg gGmbH", "opening_hours": "Mo 10:00-12:00,13:00-15:30; Tu 10:00-12:00,13:00-16:30; We-Th 10:00-12:00,13:00-15:30; Fr 10:00-12:00; Sa-Su off", "phone": "+49 341 9092081", "ref:isil": "DE-L247", "website": "https://www.sanktgeorg.de/", "wikidata": "Q28738091"}}, {"type": "node", "id": 1673864967, "lat": 51.3263885, "lon": 12.3178137, "tags": {"addr:city": "Leipzig", "addr:country": "DE", "addr:housenumber": "7", "addr:postcode": "04179", "addr:street": "Spinnereistra\u00dfe", "addr:unit": "Geb\u00e4ude 14", "amenity": "library", "email": "bibliothek@halle14.org", "fax": "+49 341 4924729", "name": "Kunstbibliothek HALLE 14", "opening_hours": "Tu-Fr 11:00-18:00; Sa-Mo off", "phone": "+49 341 4924202", "ref:isil": "DE-L328", "website": "http://www.halle14.org", "wikidata": "Q28734732"}}, {"type": "node", "id": 1673864994, "lat": 51.3054858, "lon": 12.4421476, "tags": {"addr:city": "Leipzig", "addr:country": "DE", "addr:housenumber": "2", "addr:postcode": "04289", "addr:street": "Morawitzstra\u00dfe", "amenity": "library", "email": "berger.bib@parkkrankenhaus-leipzig.de", "name": "Medizinische Fachbibliothek Psychiatrische Kliniken", "opening_hours": "Mo-Fr 07:30-12:30; Sa-Su off", "operator": "Park-Krankenhaus Leipzig-S\u00fcdost GmbH", "phone": "+49 341 8641122", "ref:isil": "DE-L246", "wikidata": "Q28738090"}}, {"type": "node", "id": 1676326356, "lat": 51.3432431, "lon": 12.3691018, "tags": {"addr:city": "Leipzig", "addr:country": "DE", "addr:housenumber": "5", "addr:postcode": "04109", "addr:street": "Goerdelerring", "amenity": "library", "email": "sic@leipzig.ihk.de", "fax": "+49 341 12671126", "name": "IHK Bibliothek", "official_name": "Bibliothek der Industrie- und Handelskammer zu Leipzig", "opening_hours": "Mo 09:00-13:00; Tu 09:00-13:00,14:00-17:00; We 09:00-13:00; Th 09:00-13:00,14:00-17:00; Fr 09:00-13:00; Sa-Su off", "phone": "+49 341 12671190", "ref:isil": "DE-L293", "website": "https://www.leipzig.ihk.de/", "wheelchair": "yes", "wikidata": "Q28738679"}}, {"type": "node", "id": 1676326372, "lat": 51.3381269, "lon": 12.354877, "tags": {"addr:city": "Leipzig", "addr:country": "DE", "addr:housenumber": "29", "addr:postcode": "04109", "addr:street": "Marschnerstra\u00dfe", "amenity": "library", "check_date:opening_hours": "2021-02-20", "email": "iatbib@iat.uni-leipzig.de", "fax": "+49 341 4945400", "name": "Bibliothek des Institut f\u00fcr Angewandte Trainingswissenschaft e.V.", "opening_hours": "Mo-Th 10:00-12:00,13:00-16:00; Fr 10:00-12:00; Sa-Su off", "phone": "+49 341 4945125", "ref:isil": "DE-L319", "website": "http://www.sport-iat.de", "wikidata": "Q28738290"}}, {"type": "node", "id": 1676326380, "lat": 51.3396641, "lon": 12.3500902, "tags": {"addr:city": "Leipzig", "addr:country": "DE", "addr:housenumber": "59", "addr:postcode": "04109", "addr:street": "Jahnallee", "amenity": "library", "email": "bibliothek@hhl.de", "fax": "+49 341 9851645", "name": "Hochschulbibliothek der Handelshochschule Leipzig", "opening_hours": "Mo-Th 09:00-18:00; Fr 09:00-16:30; Sa-Su off", "phone": "+49 341 9851643", "ref:isil": "DE-550", "website": "https://www.hhl.de/discover-hhl/library/"}}, {"type": "node", "id": 1676326399, "lat": 51.3379122, "lon": 12.4059079, "tags": {"addr:city": "Leipzig", "addr:country": "DE", "addr:housenumber": "82", "addr:postcode": "04317", "addr:street": "Dresdner Stra\u00dfe", "amenity": "library", "email": "lopleipzig@web.de", "name": "Louise-Otto-Peters-Archiv", "opening_hours": "Tu,Th 13:00-17:00; PH off", "phone": "+49 341 52917185", "ref:isil": "DE-L324", "website": "http://www.louiseottopeters-gesellschaft.de/", "wikidata": "Q28733709"}}, {"type": "node", "id": 1685001833, "lat": 51.3046982, "lon": 12.2682684, "tags": {"addr:city": "Leipzig", "addr:country": "DE", "addr:housenumber": "1", "addr:postcode": "04207", "addr:street": "Miltitzer Allee", "amenity": "school", "name": "100. Grundschule"}}, {"type": "node", "id": 1687016846, "lat": 51.3228343, "lon": 12.3738604, "tags": {"amenity": "driving_school", "name": "Xcarz Fahrschule P\u00f6tzsch", "phone": "+49 341 3039050", "website": "http://www.fahr-werk-le.de"}}, {"type": "node", "id": 1687016865, "lat": 51.3226496, "lon": 12.3738516, "tags": {"addr:city": "Leipzig", "addr:housenumber": "83", "addr:postcode": "04275", "addr:street": "Karl-Liebknecht-Stra\u00dfe", "amenity": "school", "description": "Sprachinstitut f\u00fcr Fremdsprachen Privat- & Firmenkurse", "name": "Das Sprachwohnzimmer", "operator": "Falk Dietrich & Astrid Wenzel GbR", "operator:type": "private", "phone": "+49 341 3029746", "website": "http://www.sprachwohnzimmer.de"}}, {"type": "node", "id": 1746872653, "lat": 51.361534, "lon": 12.3638514, "tags": {"addr:city": "Leipzig", "addr:housenumber": "40a", "addr:postcode": "04155", "addr:street": "Eisenacher Stra\u00dfe", "amenity": "school", "name": "Aktive Schule Leipzig - Grundschule", "url": "http://www.aktive-schule-leipzig.de/"}}, {"type": "node", "id": 1802484537, "lat": 51.3414853, "lon": 12.3713192, "tags": {"amenity": "university", "name": "Universit\u00e4t Leipzig Institut f\u00fcr Kunstgeschichte", "wheelchair": "no"}}, {"type": "node", "id": 1818639515, "lat": 51.3087513, "lon": 12.2672255, "tags": {"addr:city": "Leipzig", "addr:housenumber": "11", "addr:postcode": "04207", "addr:street": "An der Kotsche", "amenity": "library", "name": "Bibliothek Gr\u00fcnau-S\u00fcd", "opening_hours": "Mo 10:00-13:00,14:00-18:00; Tu 10:00-15:00; We 13:00-18:00; Fr 10:00-13:00,14:00-18:00; PH off", "operator": "Stadtbibliothek Leipzig", "website": "https://stadtbibliothek.leipzig.de/unsere-bibliotheken/bibliotheken-in-den-stadtteilen/bibliothek-gruenau-sued/"}}, {"type": "node", "id": 1900342859, "lat": 51.3208839, "lon": 12.3460169, "tags": {"addr:city": "Leipzig", "addr:country": "DE", "addr:housenumber": "6", "addr:postcode": "04229", "addr:street": "Oeserstra\u00dfe", "amenity": "driving_school", "entrance": "yes", "name": "Fahrschule Bauer", "website": "http://www.fahrschulebauer.de"}}, {"type": "node", "id": 2146948704, "lat": 51.3444996, "lon": 12.3923044, "tags": {"amenity": "school", "name": "Studienkolleg"}}, {"type": "node", "id": 2167230264, "lat": 51.3214373, "lon": 12.3786619, "tags": {"amenity": "driving_school", "name": "Mansfeld Fahrschule", "opening_hours": "Mo,We 17:00-18:30", "phone": "+49 341 4626065", "website": "www.fahrschule-mansfeld.de", "wheelchair": "no"}}, {"type": "node", "id": 2167230268, "lat": 51.3199003, "lon": 12.376927, "tags": {"addr:city": "Leipzig", "addr:housenumber": "95", "addr:postcode": "04275", "addr:street": "Bernhard-G\u00f6ring-Stra\u00dfe", "amenity": "music_school", "description": "Die Gitarrenmusikschule \"Gitarrenunterricht - Christian Haupt\" bietet Ihnen Premium Gitarrenunterricht auf Basis der Lernforschung und Pers\u00f6nlichkeitsentwicklung. Sie lernen hier das Spiel auf der E-Gitarre, Konzertgitarre, Westengitarre und Jazzgitarre.", "email": "mail@gitarrenunterricht-christianhaupt.de", "image": "https://gitarrenunterricht-christianhaupt.de/wp-content/uploads/2020/01/gitarrenunterricht-christianhaupt-logo-header.png", "level": "0", "name": "Gitarrenunterricht - Christian Haupt", "opening_hours": "Mo-Fr 09:00-22:00", "operator": "Christian Haupt", "phone": "+49 (0) 341 463 782 25", "website": "https://gitarrenunterricht-christianhaupt.de/"}}, {"type": "node", "id": 2194674015, "lat": 51.3367594, "lon": 12.3343925, "tags": {"addr:city": "Leipzig", "addr:housenumber": "11", "addr:postcode": "04177", "addr:street": "Lindenauer Markt", "amenity": "driving_school", "check_date": "2022-05-12", "name": "Fahrschule Klare", "phone": "+49 341 4796662", "website": "https://fahrschule-klare.de/", "wheelchair": "no"}}, {"type": "node", "id": 2265554591, "lat": 51.3568606, "lon": 12.4252213, "tags": {"amenity": "driving_school", "name": "BKF-Fahrschule"}}, {"type": "node", "id": 2281758419, "lat": 51.3801472, "lon": 12.4420907, "tags": {"addr:city": "Leipzig", "addr:housename": "BSZ 7 Elektrotechnik, Au\u00dfenstelle", "addr:housenumber": "188", "addr:postcode": "04349", "addr:street": "Tauchaer Stra\u00dfe", "amenity": "school", "designation": "Berufsschule", "name": "BSZ 7 Elektrotechnik, Au\u00dfenstelle", "wheelchair": "no"}}, {"type": "node", "id": 2323066989, "lat": 51.316377, "lon": 12.2912126, "tags": {"amenity": "library", "internet_access": "no", "name": "Bibliothek Gr\u00fcnau-Mitte", "opening_hours": "Mo,Th 10:00-13:00,14:00-18:00; Tu off; We 13:00-18:00; Fr 10:00-15:00", "wheelchair": "no"}}, {"type": "node", "id": 2391196578, "lat": 51.357041, "lon": 12.424599, "tags": {"addr:city": "Leipzig", "addr:country": "DE", "addr:housenumber": "68", "addr:postcode": "04347", "addr:street": "L\u00f6bauer Stra\u00dfe", "amenity": "driving_school", "name": "Fahrschule Barthold", "website": "http://www.fs-b.de"}}, {"type": "node", "id": 2436901800, "lat": 51.3349215, "lon": 12.4422551, "tags": {"amenity": "driving_school", "name": "Xcarz"}}, {"type": "node", "id": 2444230695, "lat": 51.3355345, "lon": 12.4006505, "tags": {"amenity": "school", "name": "125. Oberschule Leipzig", "school": "Mittelschule", "website": "https://www.125-oberschule.de/"}}, {"type": "node", "id": 2444230703, "lat": 51.3359718, "lon": 12.4008812, "tags": {"amenity": "school", "name": "Wilhelm-Busch-Schule", "school:de": "Grundschule"}}, {"type": "node", "id": 2450884467, "lat": 51.2744794, "lon": 12.3073091, "tags": {"amenity": "driving_school", "name": "Fahrschule Barthold"}}, {"type": "node", "id": 2460133044, "lat": 51.3378236, "lon": 12.4049236, "tags": {"amenity": "library", "name": "Stadtbibliothek - Reudnitz", "name:ja": "\u56fd\u7acb\u56f3\u66f8\u9928 - \u30ed\u30a4\u30c9\u30cb\u30c3\u30c4", "opening_hours": "Mo 10:00-12:00,13:00-18:00; Tu 10:00-15:00; We 13:00-18:00; Th 10:00-12:00,13:00-18:00", "wheelchair": "limited"}}, {"type": "node", "id": 2465742666, "lat": 51.3445841, "lon": 12.4214627, "tags": {"addr:city": "Leipzig", "addr:country": "DE", "addr:housenumber": "9", "addr:postcode": "04315", "addr:street": "Annenstra\u00dfe", "amenity": "school", "entrance": "yes", "name": "Fahrschule \"Wir fahren mit Herz\"", "opening_hours": "Mo,Fr 11:00-18:00; Tu 11:00-20:00; We-Th 11:00-19:00; Sa[1] 09:00-12:00; Sa[3] 09:00-12:00", "operator": "Schmidt", "phone": "+49 341 2300284"}}, {"type": "node", "id": 2484980536, "lat": 51.3602832, "lon": 12.3699754, "tags": {"addr:city": "Leipzig", "addr:housenumber": "8", "addr:postcode": "04155", "addr:street": "L\u00fctzowstra\u00dfe", "amenity": "school", "image": "https://www.schugel.de/wp-content/uploads/2021/09/IMG_1713-507x380.jpg", "name": "Freie Oberschule Gohlis", "operator": "Schulen f\u00fcr gemeinschaftliches Lernen e. V.", "operator:type": "private_non_profit", "phone": "+49 341 5647880", "religion": "none", "website": "https://www.schugel.de/freie-oberschule-gohlis/"}}, {"type": "node", "id": 2492247693, "lat": 51.3460949, "lon": 12.415127, "tags": {"amenity": "library", "name": "Bibliothek Volkmarsdorf", "wheelchair": "yes"}}, {"type": "node", "id": 2557023555, "lat": 51.3463522, "lon": 12.4730889, "tags": {"addr:city": "Leipzig", "addr:country": "DE", "addr:housenumber": "1", "addr:postcode": "04328", "addr:street": "Schongauerstra\u00dfe", "amenity": "library", "name": "Staatsarchiv Leipzig", "opening_hours": "Mo 08:30-18:00; Tu 08:30-16:00; We 8:30-18:00; Th 08:30-16:00"}}, {"type": "node", "id": 2571415922, "lat": 51.3161862, "lon": 12.3736381, "tags": {"amenity": "driving_school", "name": "Fahrschule Klare", "opening_hours": "Tu,We 12:00-16:00, Mo 16:30-19:00, Th 16:00-19:00, Fr 15:30-19:00", "phone": "+49 341 6889968", "website": "http://www.fahrschule-klare.de"}}, {"type": "node", "id": 2873498876, "lat": 51.3212797, "lon": 12.3636276, "tags": {"amenity": "school", "name": "musikwerkstatt leipzig"}}, {"type": "node", "id": 3217119461, "lat": 51.3657479, "lon": 12.3535118, "tags": {"addr:city": "Leipzig", "addr:housenumber": "148", "addr:postcode": "04159", "addr:street": "Georg-Schumann-Stra\u00dfe", "amenity": "school", "name": "BFW Leipzig", "website": "https://www.bfw-leipzig.de/", "wheelchair": "yes"}}, {"type": "node", "id": 3371585950, "lat": 51.3557827, "lon": 12.4620658, "tags": {"amenity": "library", "check_date:opening_hours": "2021-10-24", "name": "Bibliothek Paunsdorf", "opening_hours": "Mo,Tu,Th,Fr 10:00-18:00, We 13:00-18:00", "wheelchair": "yes"}}, {"type": "node", "id": 3405194693, "lat": 51.3447714, "lon": 12.3959959, "tags": {"addr:city": "Leipzig", "addr:housenumber": "10", "addr:postcode": "04315", "addr:street": "Lutherstra\u00dfe", "amenity": "school", "name": "ciT Leipzig GmbH", "phone": "+49 341 687070", "toilets:wheelchair": "yes", "website": "https://www.cit-leipzig.de", "wheelchair": "yes", "wheelchair:description": "Ebenerdiger Eingang, stufenlose Zug\u00e4nge zu allen R\u00e4umen, gro\u00dfr\u00e4umiger Aufzug, Rollstuhl-WC im Erdgeschoss, auf Anfrage Parkplatz in Tiefgarage m\u00f6glich"}}, {"type": "node", "id": 3415772180, "lat": 51.3327117, "lon": 12.3758789, "tags": {"amenity": "language_school", "name": "Sprachinstitut UFS Leipzig"}}, {"type": "node", "id": 3426555988, "lat": 51.3312145, "lon": 12.3795926, "tags": {"amenity": "school", "education": "music", "name": "Modern Music School"}}, {"type": "node", "id": 3431734571, "lat": 51.3400591, "lon": 12.4342909, "tags": {"addr:city": "Leipzig", "addr:country": "DE", "addr:housenumber": "21", "addr:postcode": "04318", "addr:street": "Zweenfurther Stra\u00dfe", "amenity": "school"}}, {"type": "node", "id": 3598143793, "lat": 51.3598127, "lon": 12.3879567, "tags": {"addr:city": "Leipzig", "addr:housenumber": "7", "addr:postcode": "04129", "addr:street": "Hohmannstra\u00dfe", "amenity": "school", "name": "Sozialpflegeschulen Heimerer", "toilets:wheelchair": "yes", "wheelchair": "yes", "wheelchair:description": "T\u00fcren f\u00fcr die Eing\u00e4nge sind schwer zu \u00f6ffnen"}}, {"type": "node", "id": 3660457902, "lat": 51.3462898, "lon": 12.4142845, "tags": {"amenity": "driving_school", "name": "Fahrschule J\u00fcrgen Obst", "training": "driving"}}, {"type": "node", "id": 3660502500, "lat": 51.3376802, "lon": 12.3993032, "tags": {"amenity": "driving_school", "name": "BKF-Fahrschule"}}, {"type": "node", "id": 3729201990, "lat": 51.3569166, "lon": 12.3625495, "tags": {"amenity": "university", "designation": "university", "name": "Leipzig School of Media"}}, {"type": "node", "id": 3732160948, "lat": 51.3672059, "lon": 12.3861093, "tags": {"addr:city": "Leipzig", "addr:housenumber": "90", "addr:postcode": "04129", "addr:street": "Delitzscher Stra\u00dfe", "amenity": "driving_school", "email": "fahrschule_schoene@outlook.de", "fax": "+49 341 5295517", "mapillary": "268410895003125", "name": "Fahrschule Sch\u00f6ne", "opening_hours": "Tu-Th 16:00-18:00", "phone": "+49 173 3560907", "website": "https://www.schoene-fahrschule.de/"}}, {"type": "node", "id": 3764718366, "lat": 51.2824013, "lon": 12.4617959, "tags": {"amenity": "driving_school", "entrance": "yes", "name": "Fahrschule Schmidt", "operator": "G\u00fcnther Schmidt"}}, {"type": "node", "id": 3832683536, "lat": 51.3206548, "lon": 12.3909058, "tags": {"amenity": "library", "internet_access": "wlan", "name": "Universit\u00e4tsbibliothek Leipzig Veterin\u00e4rmedizin", "opening_hours:signed": "no", "operator": "Universit\u00e4t Leipzig"}}, {"type": "node", "id": 3834479157, "lat": 51.3576976, "lon": 12.3847869, "tags": {"addr:city": "Leipzig", "addr:housenumber": "7-9", "addr:postcode": "04129", "addr:street": "Haferkornstra\u00dfe", "amenity": "school", "name": "ciT Leipzig GmbH - PROJEKTHAUS", "phone": "+49 341 91075430", "toilets:wheelchair": "yes", "website": "https://www.cit-leipzig.de", "wheelchair": "yes", "wheelchair:description": "Eingang \u00fcber Schr\u00e4ge (etwas steil - ggf. Hilfe n\u00f6tig), stufenlose Zug\u00e4nge zu allen R\u00e4umen, gro\u00dfr\u00e4umiger Aufzug, Rollstuhl-WC, Behinderten-Parkplatz vorhanden"}}, {"type": "node", "id": 3861181361, "lat": 51.3288468, "lon": 12.3704353, "tags": {"addr:city": "Leipzig", "addr:housenumber": "59", "addr:postcode": "04107", "addr:street": "Paul-Gruner-Stra\u00dfe", "amenity": "school", "name": "T\u00dcV Oberschule Leipzig", "toilets:wheelchair": "no", "wheelchair": "no"}}, {"type": "node", "id": 3861233557, "lat": 51.367499, "lon": 12.3408602, "tags": {"addr:city": "Leipzig", "addr:housenumber": "1", "addr:postcode": "04159", "addr:street": "Gustav-K\u00fchn-Stra\u00dfe", "amenity": "school", "name": "39. Grundschule", "toilets:wheelchair": "yes", "wheelchair": "yes"}}, {"type": "node", "id": 4269756112, "lat": 51.3035198, "lon": 12.4262634, "tags": {"amenity": "driving_school", "name": "T. Seifert"}}, {"type": "node", "id": 4321326991, "lat": 51.3758081, "lon": 12.3601764, "tags": {"addr:city": "Leipzig", "addr:housenumber": "81", "addr:postcode": "04157", "addr:street": "Landsberger Stra\u00dfe", "amenity": "driving_school", "email": "info@fahrschule-andratschke.de", "name": "Fahrschule Andratschke", "opening_hours": "Tu,Th 14:30-18:00 \"B\u00fcrozeiten\"; Tu,Th 18:30-20:00 \"Unterricht\"", "phone": "+49 341 / 90 21 598", "phone_1": "+49 341 / 91 19 583", "phone_2": "+49 172 / 34 08 203", "website": "http://www.fahrschule-andratschke.de/index.html", "wheelchair": "yes"}}, {"type": "node", "id": 4361604426, "lat": 51.3248101, "lon": 12.3732823, "tags": {"amenity": "driving_school", "name": "Bergmann", "opening_hours": "Mo-Fr 08:30-18:30, Sa 08:30-16:30, Su,PH 10:00-13:00"}}, {"type": "node", "id": 4387110998, "lat": 51.3108435, "lon": 12.376197, "tags": {"addr:city": "Leipzig", "addr:housenumber": "152", "addr:postcode": "04277", "addr:street": "Bernhard-G\u00f6ring-Stra\u00dfe", "amenity": "library", "email": "MONAliesA_leipzig@gmx.de", "name": "Feministische Bibliothek MONAliesA", "opening_hours": "Tu-Th 15:00-19:00", "operator": "Lotta e.V.", "website": "https://monaliesa.de/"}}, {"type": "node", "id": 4443825645, "lat": 51.330449, "lon": 12.3392534, "tags": {"addr:city": "Leipzig", "addr:housenumber": "13", "addr:postcode": "04229", "addr:street": "Wei\u00dfenfelser Stra\u00dfe", "amenity": "school", "name": "Fanny-Hensel-Schule", "operator": "Stadt Leipzig"}}, {"type": "node", "id": 4443825646, "lat": 51.3299968, "lon": 12.3396569, "tags": {"addr:city": "Leipzig", "addr:housenumber": "24", "addr:postcode": "04229", "addr:street": "Erich-Zeigner-Allee", "amenity": "school", "name": "Erich-Zeigner-Schule"}}, {"type": "node", "id": 4472418249, "lat": 51.3452542, "lon": 12.3733073, "tags": {"addr:city": "Leipzig", "addr:country": "DE", "addr:postcode": "04105", "addr:street": "L\u00f6hrstra\u00dfe", "amenity": "school", "name": "Volkshochschule Leipzig", "operator": "Stadt Leipzig"}}, {"type": "node", "id": 4510610692, "lat": 51.3279252, "lon": 12.3308068, "tags": {"amenity": "school"}}, {"type": "node", "id": 4740378379, "lat": 51.3380791, "lon": 12.3908009, "tags": {"addr:city": "Leipzig", "addr:housenumber": "1", "addr:postcode": "04103", "addr:street": "Rabensteinplatz", "amenity": "school", "name": "Z&P Schulung GmbH"}}, {"type": "node", "id": 4876852534, "lat": 51.3595146, "lon": 12.469461, "tags": {"amenity": "driving_school", "mobile": "+491776504051", "name": "Fahrschule Engel", "opening_hours": "We 17:30-19:00", "phone": "+493412512840"}}, {"type": "node", "id": 5066910021, "lat": 51.335966, "lon": 12.331009, "tags": {"amenity": "driving_school", "name": "Fahrschule Le"}}, {"type": "node", "id": 5158447776, "lat": 51.3313929, "lon": 12.3956724, "tags": {"addr:city": "Leipzig", "addr:housenumber": "34", "addr:postcode": "04317", "addr:street": "Prager Stra\u00dfe", "amenity": "university", "level": "5", "name": "Institut f\u00fcr Meteorologie", "operator": "Universit\u00e4t Leipzig"}}, {"type": "node", "id": 5176125923, "lat": 51.3410192, "lon": 12.3788075, "tags": {"addr:city": "Leipzig", "addr:housenumber": "6-10", "addr:postcode": "04109", "addr:street": "Nikolaistra\u00dfe", "amenity": "university", "internet_access": "wlan", "name": "Stabsstelle Chancengleichheit, Diversit\u00e4t und Familie", "toilets:wheelchair": "yes", "website": "www.uni-leipzig.de/diversity", "wheelchair": "yes"}}, {"type": "node", "id": 5212872242, "lat": 51.3341477, "lon": 12.3696171, "tags": {"amenity": "university", "name": "Research Academy Leipzig (RAL)"}}, {"type": "node", "id": 5297527322, "lat": 51.3685463, "lon": 12.3789033, "tags": {"amenity": "school", "name": "Kochstudio", "school": "cooking"}}, {"type": "node", "id": 5309014135, "lat": 51.3456449, "lon": 12.3933634, "tags": {"addr:housenumber": "40", "addr:postcode": "04315", "addr:street": "Rosa-Luxemburg-Stra\u00dfe", "amenity": "driving_school", "name": "Gr\u00fcnewald"}}, {"type": "node", "id": 5319100425, "lat": 51.3206637, "lon": 12.3307921, "tags": {"addr:city": "Leipzig", "addr:country": "DE", "addr:housenumber": "101", "addr:postcode": "04229", "addr:street": "Zschochersche Stra\u00dfe", "addr:suburb": "Plagwitz", "amenity": "driving_school", "check_date:opening_hours": "2022-02-22", "license_classes": "A;A1;B;BE;C;CE", "name": "Am Adler", "opening_hours": "Mo-Fr 11:00-18:00; PH off", "operator": "A & K GmbH", "phone": "+49 341 4201527", "website": "https://fahrschule-am-adler.de/"}}, {"type": "node", "id": 5337335500, "lat": 51.3215641, "lon": 12.2691707, "tags": {"amenity": "library", "name": "Bibliothek Gr\u00fcnau-Nord"}}, {"type": "node", "id": 5484605436, "lat": 51.3425155, "lon": 12.3796201, "tags": {"addr:city": "Leipzig", "addr:housenumber": "65", "addr:postcode": "04109", "addr:street": "Br\u00fchl", "amenity": "school", "name": "WBS Training"}}, {"type": "node", "id": 5601768243, "lat": 51.332083, "lon": 12.3302509, "tags": {"addr:city": "Leipzig", "addr:housenumber": "48", "addr:postcode": "04177", "addr:street": "Aurelienstra\u00dfe", "amenity": "driving_school", "email": "info@jules-fahrschule.de", "name": "Jule's Fahrschule (K+K Reddemann)", "operator": "Julia Ortmann", "phone": "+4915255 88 66 25", "website": "https://www.jules-fahrschule.de/", "wheelchair": "no"}}, {"type": "node", "id": 5705342921, "lat": 51.3168956, "lon": 12.3999354, "tags": {"addr:housenumber": "9", "addr:street": "Puschstra\u00dfe", "amenity": "school", "name": "Kulturwerk M14", "name:de": "Kulturwerk M14 (Musikschule)", "website": "https://www.kulturwerk-m14.de/"}}, {"type": "node", "id": 5706304697, "lat": 51.3227848, "lon": 12.343367, "tags": {"amenity": "driving_school", "name": "F\u00fchrerscheinmacher.de", "website": "https://www.fahrschule-leipzig-markkleeberg.de", "wheelchair": "no"}}, {"type": "node", "id": 5723599065, "lat": 51.3359739, "lon": 12.4064334, "tags": {"amenity": "driving_school", "name": "Fahrschule Bernd Dathe", "opening_hours": "Tu 16:00-20:00; Th 16:00-18:00; PH off", "phone": "+49 341 6880800", "website": "http://www.fahrschule-dathe.de"}}, {"type": "node", "id": 5846263587, "lat": 51.3125302, "lon": 12.370588, "tags": {"amenity": "library", "name": "Jonnathan Romero Huertas"}}, {"type": "node", "id": 5856747935, "lat": 51.3302052, "lon": 12.3984783, "tags": {"amenity": "driving_school", "name": "Fahrschuhle Am Thonberg"}}, {"type": "node", "id": 6130292098, "lat": 51.3365211, "lon": 12.3817404, "tags": {"amenity": "driving_school", "contact:website": "https://www.fahrschule-uwe-mueller.de/", "name": "Fahrschule Uwe M\u00fcller"}}, {"type": "node", "id": 6248160683, "lat": 51.3375599, "lon": 12.3380569, "tags": {"addr:city": "Leipzig", "addr:country": "DE", "addr:housenumber": "13", "addr:postcode": "04177", "addr:street": "Angerstra\u00dfe", "amenity": "music_school", "name": "Kleine Musikschule Lindenau"}}, {"type": "node", "id": 6358128306, "lat": 51.341293, "lon": 12.3746157, "tags": {"addr:city": "Leipzig", "addr:housenumber": "5-6", "addr:postcode": "04109", "addr:street": "Markt", "amenity": "college", "name": "Internationale Berufsakademie (iba) Leipzig", "operator": "F+U Unternehmensgruppe", "website": "https://www.iba-leipzig.com"}}, {"type": "node", "id": 6531424367, "lat": 51.3587928, "lon": 12.3891413, "tags": {"addr:housenumber": "7a", "amenity": "school", "contact:email": "fs-leipzig@ebg.de", "contact:fax": "+49 0341 90045823", "contact:phone": "+49 341 90045825", "name": "Europ\u00e4isches Bildungswerk f\u00fcr Beruf und Gesellschaft e.V.", "website": "https://www.ebg.de/standort/leipzig-schulen/"}}, {"type": "node", "id": 6551585034, "lat": 51.3513512, "lon": 12.4594046, "tags": {"addr:city": "Leipzig", "addr:housenumber": "2", "addr:postcode": "04329", "addr:street": "Heiterblickallee", "amenity": "driving_school", "level": "0", "license_classes": "B;AM;A1;A2;A;B96;BE;C1;C1E;C;CE;D1;D1E;D;DE;L;T", "name": "Fahrschule Peter Scholz", "opening_hours": "Mo 15:00-18:00; We 15:00-18:00", "operator": "Fahrschule Peter Scholz (Inh. Steffen Stadelmann)", "phone": "+493412514202", "source": "http://www.fahrschule-peter-scholz.de/index.php/fahrschule-scholz-leipzig", "website": "http://www.fahrschule-peter-scholz.de"}}, {"type": "node", "id": 6680721136, "lat": 51.3362454, "lon": 12.3682901, "tags": {"addr:city": "Leipzig", "addr:housenumber": "8", "addr:postcode": "04109", "addr:street": "Manetstra\u00dfe", "amenity": "music_school", "description": "Die Schola Cantorum Leipzig (zu deutsch: Singschule) wurde im Jahr 1963 als Kinder- und Jugendchor gegr\u00fcndet und arbeitet seit 1982 unter Tr\u00e4gerschaft der Stadt Leipzig.", "email": "info@schola-cantorum.de", "name": "Schola Cantorum Leipzig", "opening_hours": "Tu 14:00-18:00; We 14:00-16:00; Th 14:00-20:00", "operator": "Stadt Leipzig", "phone": "+49 341 213 21 16", "start_date": "1963", "website": "https://www.schola-cantorum.de", "wikidata": "Q2248606", "wikipedia": "de:Schola Cantorum Leipzig"}}, {"type": "node", "id": 6721827963, "lat": 51.3799885, "lon": 12.4355078, "tags": {"addr:city": "Leipzig", "addr:housenumber": "110", "addr:postcode": "04349", "addr:street": "Tauchaer Stra\u00dfe", "amenity": "driving_school", "name": "Fahrschule Breu", "phone": "+49 341 9218797"}}, {"type": "node", "id": 6812211652, "lat": 51.3202809, "lon": 12.35839, "tags": {"amenity": "school", "name": "Freiluftschule Leipzig"}}, {"type": "node", "id": 6833786888, "lat": 51.3024249, "lon": 12.3280413, "tags": {"addr:city": "Leipzig", "addr:housenumber": "193", "addr:postcode": "04249", "addr:street": "Dieskaustra\u00dfe", "amenity": "driving_school", "name": "Motorrad-Fahrschule-Leipzig", "opening_hours": "We 17:00-19:00", "operator": "Daniel Banet", "phone": "+49 172 3415551", "website": "http://www.motorrad-fahrschule-leipzig.de/"}}, {"type": "node", "id": 6976160140, "lat": 51.3228666, "lon": 12.3738619, "tags": {"addr:city": "Leipzig", "addr:country": "DE", "addr:housenumber": "81", "addr:postcode": "04275", "addr:street": "Karl-Liebknecht-Stra\u00dfe", "addr:suburb": "S\u00fcdvorstadt", "amenity": "music_school", "email": "steffen.glueck@gmx.de", "name": "Gitarrenschule Zauberfichte", "operator": "Steffen Gl\u00fcck", "phone": "+49 341 3039274", "website": "https://www.gitarrenschule-zauberfichte.de"}}, {"type": "node", "id": 7006600666, "lat": 51.3170538, "lon": 12.2660566, "tags": {"addr:city": "Leipzig", "addr:country": "DE", "addr:housenumber": "544", "addr:postcode": "04205", "addr:street": "L\u00fctzner Stra\u00dfe", "addr:suburb": "Gr\u00fcnau", "amenity": "driving_school", "check_date:opening_hours": "2021-05-08", "contact:email": "kontakt@fahrschule-gunia.de", "contact:mobile": "+49 178 1878335", "contact:website": "https://www.fahrschule-gunia.de/", "name": "Fahrschule Gunia", "opening_hours": "Mo-Th 17:00-19:00; Fr,Sa,Su,PH off", "operator": "Carsten J\u00e4ger", "wheelchair": "yes"}}, {"type": "node", "id": 7037855452, "lat": 51.3302355, "lon": 12.3732211, "tags": {"addr:city": "Leipzig", "addr:housenumber": "12", "addr:postcode": "04107", "addr:street": "Karl-Liebknecht-Stra\u00dfe", "amenity": "college", "brand": "Akademie Deutsche POP", "brand:wikidata": "Q413887", "brand:wikipedia": "de:Akademie Deutsche POP", "internet_access": "yes", "internet_access:fee": "no", "name": "Akademie Deutsche POP Leipzig", "operator": "music support group GmbH", "operator:type": "public", "website": "https://deutsche-pop.com/de/leipzig"}}, {"type": "node", "id": 7125610930, "lat": 51.3375996, "lon": 12.3737876, "tags": {"access": "yes", "amenity": "library", "door": "yes", "email": "zbrewi@ub.uni-leipzig.de", "fax": "+49 341 97-39233", "level": "2", "name": "Bibliothek Rechtswissenschaft \u2013 Recht I", "opening_hours": "Mo-Fr 08:00-22:00; Sa 10:00-22:00; Su 10:00-20:00", "phone": "+49 341 97-30655", "website": "https://www.ub.uni-leipzig.de/standorte/rechtswissenschaft", "wheelchair": "limited"}}, {"type": "node", "id": 7151931499, "lat": 51.3277172, "lon": 12.3277723, "tags": {"addr:city": "Leipzig", "addr:country": "DE", "addr:housenumber": "16", "addr:postcode": "04229", "addr:street": "Gie\u00dferstra\u00dfe", "amenity": "library", "name": "Samizdat - anarchistische Bibliothek und Infoladen", "operator": "kollektiv"}}, {"type": "node", "id": 7166693151, "lat": 51.327426, "lon": 12.336002, "tags": {"amenity": "university", "name": "HTWK - Digitale Transformation"}}, {"type": "node", "id": 7453860773, "lat": 51.3264524, "lon": 12.3840151, "tags": {"addr:housenumber": "27", "addr:street": "D\u00f6sner Weg", "amenity": "school", "name": "Apollonia-von-Wiedebach-Schule Teilauslagerung"}}, {"type": "node", "id": 7457339854, "lat": 51.3215684, "lon": 12.2656604, "tags": {"addr:city": "Leipzig", "addr:housenumber": "1", "addr:postcode": "04205", "addr:street": "Miltitzer Weg", "amenity": "school", "name": "Schule Gr\u00fcnau Forderschule", "website": "https://www.leipzig.de/detailansicht-adresse/schule-gruenau-schule-zur-lernfoerderung-der-stadt-leipzig/"}}, {"type": "node", "id": 7457592047, "lat": 51.3216382, "lon": 12.398974, "tags": {"addr:city": "Leipzig", "addr:housenumber": "3", "addr:postcode": "04103", "addr:street": "Curiestra\u00dfe", "amenity": "school", "name": "Schule Thonberg - F\u00f6rderschule", "website": "https://www.leipzig.de/detailansicht-adresse/schule-thonberg-schule-mit-dem-foerderschwerpunkt-geistige-entwicklung-der-stadt-leipzig/"}}, {"type": "node", "id": 7690720087, "lat": 51.3260045, "lon": 12.4067831, "tags": {"amenity": "school", "email": "info@bildungszentrum-leipzig.de", "name": "Bildungszentrum f\u00fcr Gesundheitsberufe Leipzig (BzGL)", "name:en": "Centre of Health Education Leipzig", "phone": "+493414780800", "website": "http://www.bildungszentrum-leipzig.de"}}, {"type": "node", "id": 7694891283, "lat": 51.3326787, "lon": 12.372031, "tags": {"amenity": "library", "level": "0", "name": "Interkulturelle Bibliothek", "opening_hours": "Tu-Th 10:00-12:30,13:30-18:00", "operator": "WeltOffen e.V.", "wheelchair": "no"}}, {"type": "node", "id": 7807024914, "lat": 51.3194043, "lon": 12.2695442, "tags": {"addr:housenumber": "25", "addr:street": "Andromedaweg", "amenity": "school", "name": "F\u00f6rderschule"}}, {"type": "node", "id": 7807221795, "lat": 51.3533467, "lon": 12.4111505, "tags": {"amenity": "driving_school", "email": "info@xcarz.de", "name": "Xcarz Fahrschule P\u00f6tsch", "opening_hours": "Mo, Th 11:30-17:00", "phone": "+49 341 6516053"}}, {"type": "node", "id": 7875809212, "lat": 51.3358028, "lon": 12.3356779, "tags": {"addr:city": "Leipzig", "addr:housenumber": "7", "addr:postcode": "04177", "addr:street": "Goetzstra\u00dfe", "amenity": "library", "description": "Das communistische Labor soll zu einem St\u00fctzpunkt f\u00fcr Leute werden, die sich nicht mit ihrem \u201eSchicksal\u201c abfinden wollen, ihr Dasein als Arbeitskraftbeh\u00e4lter f\u00fcr Kapital und Staat zu fristen... https://translibleipzig.wordpress.com/about/", "email": "translib@gmx.de", "name": "translib - Communistisches Labor", "website": "https://translibleipzig.wordpress.com/", "wheelchair": "no"}}, {"type": "node", "id": 7886454461, "lat": 51.3023003, "lon": 12.374547, "tags": {"addr:city": "Leipzig", "addr:housenumber": "3", "addr:postcode": "04277", "addr:street": "Koburger Stra\u00dfe", "amenity": "library", "email": "leipzig@infoladen.net", "level": "2", "name": "Infoladen", "opening_hours": "Tu-Th 17:00-20:00", "phone": "+49 341 3026504", "website": "http://www.conne-island.de/infoladen.html"}}, {"type": "node", "id": 8001011942, "lat": 51.3517407, "lon": 12.4081453, "tags": {"addr:housenumber": "26", "addr:street": "Gorkistra\u00dfe", "amenity": "driving_school", "name": "Fahrschule J\u00fcrgen Obst", "phone": "+49 177 6895853", "website": "www.fahrschule-juergen-obst.de"}}, {"type": "node", "id": 8461955611, "lat": 51.324088, "lon": 12.4129545, "tags": {"amenity": "driving_school", "name": "Fahrschule Mansfeld"}}, {"type": "node", "id": 8464121413, "lat": 51.3229544, "lon": 12.418681, "tags": {"amenity": "music_school", "name": "Musik-Studio"}}, {"type": "node", "id": 8829267932, "lat": 51.3402838, "lon": 12.3661487, "tags": {"addr:city": "Leipzig", "addr:country": "DE", "addr:housenumber": "16 - 18", "addr:postcode": "04109", "addr:street": "K\u00e4the-Kollwitz-Stra\u00dfe", "addr:suburb": "Zentrum-West", "amenity": "school", "contact:email": "info@deutsche-heilpraktikerschule.de", "contact:facebook": "https://www.facebook.com/DeutscheHeilpraktikerschule", "contact:fax": "+49 341 68709702", "contact:instagram": "https://www.instagram.com/deutsche_heilpraktikerschule", "contact:phone": "+49 341 35055707", "contact:website": "https://deutsche-heilpraktikerschule.de/leipzig", "name": "Deutsche Heilpraktikerschule Leipzig", "operator": "Michael Bochmann"}}, {"type": "node", "id": 8829712060, "lat": 51.3315821, "lon": 12.3673371, "tags": {"addr:city": "Leipzig", "addr:country": "DE", "addr:housenumber": "12", "addr:postcode": "04107", "addr:street": "Grassistra\u00dfe", "addr:suburb": "Leipzig Zentrum-S\u00fcd", "amenity": "school", "contact:email": "inf@robotron-online.de", "contact:facebook": "https://www.facebook.com/robotron.bildungszentrum", "contact:fax": "+49 341 2148355", "contact:phone": "+49 341 2148351", "contact:website": "https://www.robotron-online.de", "name": "Robotron Bildungs- und Beratungszentrum", "operator": "Robotron Bildungs- und Beratungszentrum GmbH"}}, {"type": "node", "id": 8852350767, "lat": 51.3412897, "lon": 12.3692553, "tags": {"addr:housenumber": "21", "addr:street": "Dittrichring", "amenity": "college", "name": "Hochschule f\u00fcr Musik und Theater Felix Mendelssohn Bartholdy Haus Dittrichring", "website": "https://www.hmt-leipzig.de/"}}, {"type": "node", "id": 9055516285, "lat": 51.3059892, "lon": 12.4421024, "tags": {"addr:city": "Leipzig", "addr:country": "DE", "addr:housenumber": "2", "addr:postcode": "04289", "addr:street": "Morawitzstra\u00dfe", "amenity": "school", "contact:email": "klinikschule-leipzig@t-online.de", "contact:fax": "+49 341 860 7552", "contact:phone": "+49 341 8781920", "contact:website": "cms.sachsen.schule/ksl", "description": "Klinik- und Krankenhausschule", "isced:level": "1;2;3", "name": "Dr.-Georg-Sacke-Schule"}}, {"type": "node", "id": 9152071835, "lat": 51.3120959, "lon": 12.2630288, "tags": {"addr:housenumber": "41", "addr:street": "An der Kotsche", "amenity": "school", "description": "Verlegt", "name": "78. Grundschule (verlegt)", "operator": "Stadt Leipzig", "website": "https://78.gs-leipzig.de/"}}, {"type": "node", "id": 9263083348, "lat": 51.3601533, "lon": 12.3625226, "tags": {"addr:city": "Leipzig", "addr:housenumber": "28", "addr:postcode": "04155", "addr:street": "Berggartenstra\u00dfe", "amenity": "driving_school", "fax": "+49 341 6011631", "name": "Fahrschule Abgefahren", "operator": "Silke Thein", "phone": "+49 152 53551931", "website": "https://www.fahrschule-abgefahren.net/"}}, {"type": "node", "id": 9330011303, "lat": 51.2957349, "lon": 12.3858599, "tags": {"amenity": "driving_school"}}, {"type": "node", "id": 9536935784, "lat": 51.3285853, "lon": 12.3370564, "tags": {"addr:city": "Leipzig", "addr:housenumber": "15", "addr:postcode": "04229", "addr:street": "Lauchst\u00e4dter Stra\u00dfe", "amenity": "language_school", "contact:facebook": "SprachstudioLeipzig", "contact:instagram": "sprachstudioleipzig", "email": "info@sprachstudio-leipzig.de", "language:de": "yes", "name": "Sprachstudio Leipzig", "opening_hours": "nach Absprache", "operator": "Slavica Naumoski", "operator:type": "private_individual", "phone": "+4934124732309", "website": "https://sprachstudio-leipzig.de/", "wheelchair": "no"}}, {"type": "node", "id": 9537640571, "lat": 51.3289995, "lon": 12.3362433, "tags": {"addr:city": "Leipzig", "addr:housenumber": "20", "addr:postcode": "04229", "addr:street": "Lauchst\u00e4dter Stra\u00dfe", "amenity": "driving_school", "contact:instagram": "cf_black.white", "email": "black.white@clubfahrschule.de", "name": "Club Fahrschule Black & White", "opening_hours": "Tu, Th 14:00-17:00", "operator": "Clubfahrschule Black & White GmbH & Co. KG", "operator:type": "private", "phone": "+4934199995319", "website": "https://www.clubfahrschule.de/"}}, {"type": "node", "id": 9732412730, "lat": 51.3381861, "lon": 12.3735411, "tags": {"access": "yes", "amenity": "library", "door": "yes", "email": "zbrewi@ub.uni-leipzig.de", "level": "2", "name": "Bibliothek Rechtswissenschaft \u2013 Recht II", "opening_hours": "Mo-Fr 08:00-22:00; Sa 10:00-22:00; Su 10:00-20:00", "phone": "+49 341 97-30649", "website": "https://www.ub.uni-leipzig.de/standorte/rechtswissenschaft", "wheelchair": "limited"}}]}